REAL                    
1 64875U 25154G   26068.72233414  .00022901  00000+0  82904-3 0  9994
2 64875  97.4133 137.2581 0001853 118.5876 241.5550 15.28408058 34830
STARLINK-34844          
1 66486U 25263B   26068.10939454  .00045992  00000+0  16706-2 0  9995
2 66486  43.0041 353.6766 0001789 255.4562 104.6092 15.27577164 18763
